ONEWEB-0289             
1 49079U 21075E   23314.61412597  .00000002  00000+0 -27072-4 0  9996
2 49079  87.9253 194.6271 0001637  70.2282 289.9025 13.17649020109157
ONEWEB-0290             
1 49080U 21075F   23314.59724226  .00000083  00000+0  18120-3 0  9991
2 49080  87.9228 194.6067 0001369  87.3648 272.7640 13.17650019108568
ONEWEB-0291             
1 49081U 21075G   23314.42849250 -.00000039  00000+0 -13358-3 0  9990
2 49081  87.9234 194.6648 0001571  88.2992 271.8320 13.17649458108535
ONEWEB-0293             
1 49082U 21075H   23314.60568267  .00000032  00000+0  49322-4 0  9999
2 49082  87.9252 194.6273 0001485  84.7881 275.3419 13.17648523108587
ONEWEB-0294             
1 49083U 21075J   23314.56449819 -.00003099  00000+0 -86501-2 0  9992
2 49083  87.9031 179.5272 0001260 108.7234 251.4031 13.12457855110011
ONEWEB-0295             
1 49084U 21075K   23314.60778699  .00000087  00000+0  19187-3 0  9998
2 49084  87.9259 194.5991 0001783  93.4491 266.6844 13.17650339108546
ONEWEB-0296             
1 49085U 21075L   23314.62482399  .00000439  00000+0  11845-2 0  9993
2 49085  87.9031 179.5132 0001811 109.0225 251.1100 13.12446571110022
ONEWEB-0297             
1 49086U 21075M   23314.57827624 -.00000217  00000+0 -63872-3 0  9996
2 49086  87.9041 179.5114 0001815  73.8222 286.3106 13.12441770110621
